{
  "type": "FeatureCollection",
  "features": [
    {
      "type": "Feature",
      "properties": {
        "norad_id": 31175,
        "name": "FENGYUN 1C DEB",
        "group": "fengyun-1c-debris",
        "lat": -32.73120853871911,
        "lon": 1.5278458737378862,
        "alt_km": 749.9303068917643,
        "timestamp": "2025-12-21T18:54:58.777201+00:00",
        "meta_object_name": "FENGYUN 1C DEB",
        "meta_object_id": "1999-025BJD",
        "meta_epoch": "2025-12-19T17:44:11.172480",
        "meta_mean_motion": 14.6030748,
        "meta_eccentricity": 0.00743604,
        "meta_inclination": 98.3966,
        "meta_ra_of_asc_node": 354.0042,
        "meta_arg_of_pericenter": 143.5954,
        "meta_mean_anomaly": 217.0335,
        "meta_ephemeris_type": 0,
        "meta_classification_type": "U",
        "meta_norad_cat_id": 31175,
        "meta_element_set_no": 999,
        "meta_rev_at_epoch": 65741,
        "meta_bstar": 0.0024269531,
        "meta_mean_motion_dot": 0.00012157,
        "meta_mean_motion_ddot": 0,
        "tle_line1": "1 31175U 99025BJD 25353.73901820  .00012157  00000+0  24270-2 0  9992",
        "tle_line2": "2 31175  98.3966 354.0042 0074360 143.5954 217.0335 14.60307480657416"
      },
      "geometry": {
        "type": "Point",
        "coordinates": [
          1.5278458737378862,
          -32.73120853871911
        ]
      }
    },
    {
      "type": "Feature",
      "properties": {
        "norad_id": 31177,
        "name": "FENGYUN 1C DEB",
        "group": "fengyun-1c-debris",
        "lat": 11.644992613142369,
        "lon": -93.49247828670642,
        "alt_km": 987.156379965887,
        "timestamp": "2025-12-21T18:54:58.777211+00:00",
        "meta_object_name": "FENGYUN 1C DEB",
        "meta_object_id": "1999-025BJF",
        "meta_epoch": "2025-12-19T17:38:35.721888",
        "meta_mean_motion": 13.62390825,
        "meta_eccentricity": 0.03085768,
        "meta_inclination": 98.7594,
        "meta_ra_of_asc_node": 266.4801,
        "meta_arg_of_pericenter": 295.8584,
        "meta_mean_anomaly": 88.4957,
        "meta_ephemeris_type": 0,
        "meta_classification_type": "U",
        "meta_norad_cat_id": 31177,
        "meta_element_set_no": 999,
        "meta_rev_at_epoch": 66307,
        "meta_bstar": 0.0031990454,
        "meta_mean_motion_dot": 3.374e-05,
        "meta_mean_motion_ddot": 0,
        "tle_line1": "1 31177U 99025BJF 25353.73513567  .00003374  00000+0  31990-2 0  9999",
        "tle_line2": "2 31177  98.7594 266.4801 0308576 295.8584  88.4957 13.62390825663072"
      },
      "geometry": {
        "type": "Point",
        "coordinates": [
          -93.49247828670642,
          11.644992613142369
        ]
      }
    },
    {
      "type": "Feature",
      "properties": {
        "norad_id": 31178,
        "name": "FENGYUN 1C DEB",
        "group": "fengyun-1c-debris",
        "lat": -49.42425013695675,
        "lon": 167.44312580407126,
        "alt_km": 777.9960166679866,
        "timestamp": "2025-12-21T18:54:58.777222+00:00",
        "meta_object_name": "FENGYUN 1C DEB",
        "meta_object_id": "1999-025BJG",
        "meta_epoch": "2025-12-18T07:05:42.469152",
        "meta_mean_motion": 14.22259738,
        "meta_eccentricity": 0.01258717,
        "meta_inclination": 99.5125,
        "meta_ra_of_asc_node": 354.9683,
        "meta_arg_of_pericenter": 299.9049,
        "meta_mean_anomaly": 58.9671,
        "meta_ephemeris_type": 0,
        "meta_classification_type": "U",
        "meta_norad_cat_id": 31178,
        "meta_element_set_no": 999,
        "meta_rev_at_epoch": 95894,
        "meta_bstar": 0.0016924306,
        "meta_mean_motion_dot": 4.025e-05,
        "meta_mean_motion_ddot": 0,
        "tle_line1": "1 31178U 99025BJG 25352.29563043  .00004025  00000+0  16924-2 0  9998",
        "tle_line2": "2 31178  99.5125 354.9683 0125871 299.9049  58.9671 14.22259738958941"
      },
      "geometry": {
        "type": "Point",
        "coordinates": [
          167.44312580407126,
          -49.42425013695675
        ]
      }
    },
    {
      "type": "Feature",
      "properties": {
        "norad_id": 31179,
        "name": "FENGYUN 1C DEB",
        "group": "fengyun-1c-debris",
        "lat": 5.971354919095093,
        "lon": -163.57429726020055,
        "alt_km": 1073.2163077711812,
        "timestamp": "2025-12-21T18:54:58.777232+00:00",
        "meta_object_name": "FENGYUN 1C DEB",
        "meta_object_id": "1999-025BJH",
        "meta_epoch": "2025-12-18T07:16:13.358496",
        "meta_mean_motion": 13.91941548,
        "meta_eccentricity": 0.02152306,
        "meta_inclination": 99.0195,
        "meta_ra_of_asc_node": 12.0814,
        "meta_arg_of_pericenter": 345.6132,
        "meta_mean_anomaly": 13.8961,
        "meta_ephemeris_type": 0,
        "meta_classification_type": "U",
        "meta_norad_cat_id": 31179,
        "meta_element_set_no": 999,
        "meta_rev_at_epoch": 62018,
        "meta_bstar": 0.00082156675,
        "meta_mean_motion_dot": 1.222e-05,
        "meta_mean_motion_ddot": 0,
        "tle_line1": "1 31179U 99025BJH 25352.30293239  .00001222  00000+0  82157-3 0  9996",
        "tle_line2": "2 31179  99.0195  12.0814 0215230 345.6132  13.8961 13.91941548620189"
      },
      "geometry": {
        "type": "Point",
        "coordinates": [
          -163.57429726020055,
          5.971354919095093
        ]
      }
    },
    {
      "type": "Feature",
      "properties": {
        "norad_id": 31180,
        "name": "FENGYUN 1C DEB",
        "group": "fengyun-1c-debris",
        "lat": -62.893517047305785,
        "lon": 145.48944498406686,
        "alt_km": 1055.5865579190122,
        "timestamp": "2025-12-21T18:54:58.777242+00:00",
        "meta_object_name": "FENGYUN 1C DEB",
        "meta_object_id": "1999-025BJJ",
        "meta_epoch": "2025-12-21T04:17:57.856704",
        "meta_mean_motion": 13.70348953,
        "meta_eccentricity": 0.04980395,
        "meta_inclination": 99.2181,
        "meta_ra_of_asc_node": 126.4066,
        "meta_arg_of_pericenter": 37.9126,
        "meta_mean_anomaly": 140.4433,
        "meta_ephemeris_type": 0,
        "meta_classification_type": "U",
        "meta_norad_cat_id": 31180,
        "meta_element_set_no": 999,
        "meta_rev_at_epoch": 64182,
        "meta_bstar": 0.00012928341,
        "meta_mean_motion_dot": 2.31e-06,
        "meta_mean_motion_ddot": 0,
        "tle_line1": "1 31180U 99025BJJ 25355.17914186  .00000231  00000+0  12928-3 0  9995",
        "tle_line2": "2 31180  99.2181 126.4066 0498039  37.9126 140.4433 13.70348953641824"
      },
      "geometry": {
        "type": "Point",
        "coordinates": [
          145.48944498406686,
          -62.893517047305785
        ]
      }
    },
    {
      "type": "Feature",
      "properties": {
        "norad_id": 31181,
        "name": "FENGYUN 1C DEB",
        "group": "fengyun-1c-debris",
        "lat": 75.68737280607945,
        "lon": -114.57512476973483,
        "alt_km": 824.16551200287,
        "timestamp": "2025-12-21T18:54:58.777252+00:00",
        "meta_object_name": "FENGYUN 1C DEB",
        "meta_object_id": "1999-025BJK",
        "meta_epoch": "2025-12-21T01:42:28.982592",
        "meta_mean_motion": 14.11912678,
        "meta_eccentricity": 0.00478932,
        "meta_inclination": 98.7784,
        "meta_ra_of_asc_node": 27.4477,
        "meta_arg_of_pericenter": 51.4256,
        "meta_mean_anomaly": 7.0118,
        "meta_ephemeris_type": 0,
        "meta_classification_type": "U",
        "meta_norad_cat_id": 31181,
        "meta_element_set_no": 999,
        "meta_rev_at_epoch": 95885,
        "meta_bstar": 0.00060845685,
        "meta_mean_motion_dot": 1.081e-05,
        "meta_mean_motion_ddot": 0,
        "tle_line1": "1 31181U 99025BJK 25355.07116878  .00001081  00000+0  60846-3 0  9993",
        "tle_line2": "2 31181  98.7784  27.4477 0047893  51.4256   7.0118 14.11912678958856"
      },
      "geometry": {
        "type": "Point",
        "coordinates": [
          -114.57512476973483,
          75.68737280607945
        ]
      }
    },
    {
      "type": "Feature",
      "properties": {
        "norad_id": 31182,
        "name": "FENGYUN 1C DEB",
        "group": "fengyun-1c-debris",
        "lat": -20.28562298882388,
        "lon": -12.351499269716534,
        "alt_km": 860.1341887309554,
        "timestamp": "2025-12-21T18:54:58.777261+00:00",
        "meta_object_name": "FENGYUN 1C DEB",
        "meta_object_id": "1999-025BJL",
        "meta_epoch": "2025-12-17T10:29:25.287072",
        "meta_mean_motion": 14.14559703,
        "meta_eccentricity": 0.00234665,
        "meta_inclination": 98.6819,
        "meta_ra_of_asc_node": 340.1808,
        "meta_arg_of_pericenter": 123.4909,
        "meta_mean_anomaly": 31.1675,
        "meta_ephemeris_type": 0,
        "meta_classification_type": "U",
        "meta_norad_cat_id": 31182,
        "meta_element_set_no": 999,
        "meta_rev_at_epoch": 96147,
        "meta_bstar": 0.00031818865,
        "meta_mean_motion_dot": 5.7e-06,
        "meta_mean_motion_ddot": 0,
        "tle_line1": "1 31182U 99025BJL 25351.43709823  .00000570  00000+0  31819-3 0  9998",
        "tle_line2": "2 31182  98.6819 340.1808 0023466 123.4909  31.1675 14.14559703961470"
      },
      "geometry": {
        "type": "Point",
        "coordinates": [
          -12.351499269716534,
          -20.28562298882388
        ]
      }
    }
  ]
}